{"type": "FeatureCollection", "features": [ {"type": "Feature", "properties": {"norad_id": 31196, "name": "FENGYUN 1C DEB", "group": "fengyun-1c-debris", "lat": -77.55157892924034, "lon": 47.11948793577256, "alt_km": 806.8054484108079, "timestamp": "2025-12-17T04:57:44.646713+00:00", "meta": {"OBJECT_NAME": "FENGYUN 1C DEB", "OBJECT_ID": "1999-025BKA", "EPOCH": "2025-12-15T07:51:30.779712", "MEAN_MOTION": 14.25465548, "ECCENTRICITY": 0.0058, "INCLINATION": 98.5267, "RA_OF_ASC_NODE": 2.4794, "ARG_OF_PERICENTER": 204.541, "MEAN_ANOMALY": 155.3007, "EPHEMERIS_TYPE": 0, "CLASSIFICATION_TYPE": "U", "NORAD_CAT_ID": 31196, "ELEMENT_SET_NO": 999, "REV_AT_EPOCH": 63532, "BSTAR": 0.00053993549, "MEAN_MOTION_DOT": 1.255e-05, "MEAN_MOTION_DDOT": 0}, "tle": {"line1": "1 31196U 99025BKA 25349.32743958  .00001255  00000+0  53994-3 0  9994", "line2": "2 31196  98.5267   2.4794 0058000 204.5410 155.3007 14.25465548635328"}}, "geometry": {"type": "Point", "coordinates": [47.11948793577256, -77.55157892924034]}}, {"type": "Feature", "properties": {"norad_id": 31198, "name": "FENGYUN 1C DEB", "group": "fengyun-1c-debris", "lat": -34.32377896631109, "lon": -91.29212300048086, "alt_km": 1069.567720208176, "timestamp": "2025-12-17T04:57:44.646722+00:00", "meta": {"OBJECT_NAME": "FENGYUN 1C DEB", "OBJECT_ID": "1999-025BKC", "EPOCH": "2025-12-15T23:58:38.861760", "MEAN_MOTION": 13.75522103, "ECCENTRICITY": 0.02036918, "INCLINATION": 98.6127, "RA_OF_ASC_NODE": 93.5551, "ARG_OF_PERICENTER": 342.7855, "MEAN_ANOMALY": 16.6458, "EPHEMERIS_TYPE": 0, "CLASSIFICATION_TYPE": "U", "NORAD_CAT_ID": 31198, "ELEMENT_SET_NO": 999, "REV_AT_EPOCH": 62798, "BSTAR": 9.2506103e-05, "MEAN_MOTION_DOT": 6.5e-07, "MEAN_MOTION_DDOT": 0}, "tle": {"line1": "1 31198U 99025BKC 25349.99906090  .00000065  00000+0  92506-4 0  9998", "line2": "2 31198  98.6127  93.5551 0203691 342.7855  16.6458 13.75522103627981"}}, "geometry": {"type": "Point", "coordinates": [-91.29212300048086, -34.32377896631109]}}, {"type": "Feature", "properties": {"norad_id": 31199, "name": "FENGYUN 1C DEB", "group": "fengyun-1c-debris", "lat": -15.569860745555479, "lon": 151.39465471360964, "alt_km": 835.2131865396486, "timestamp": "2025-12-17T04:57:44.646731+00:00", "meta": {"OBJECT_NAME": "FENGYUN 1C DEB", "OBJECT_ID": "1999-025BKD", "EPOCH": "2025-12-15T04:38:25.255104", "MEAN_MOTION": 14.0998934, "ECCENTRICITY": 0.0063456, "INCLINATION": 98.7153, "RA_OF_ASC_NODE": 331.894, "ARG_OF_PERICENTER": 252.6703, "MEAN_ANOMALY": 169.1973, "EPHEMERIS_TYPE": 0, "CLASSIFICATION_TYPE": "U", "NORAD_CAT_ID": 31199, "ELEMENT_SET_NO": 999, "REV_AT_EPOCH": 96194, "BSTAR": 0.00023583272, "MEAN_MOTION_DOT": 3.81e-06, "MEAN_MOTION_DDOT": 0}, "tle": {"line1": "1 31199U 99025BKD 25349.19334786  .00000381  00000+0  23583-3 0  9997", "line2": "2 31199  98.7153 331.8940 0063456 252.6703 169.1973 14.09989340961947"}}, "geometry": {"type": "Point", "coordinates": [151.39465471360964, -15.569860745555479]}}, {"type": "Feature", "properties": {"norad_id": 31201, "name": "FENGYUN 1C DEB", "group": "fengyun-1c-debris", "lat": 80.09118824693562, "lon": 97.4367194231154, "alt_km": 810.3338026954116, "timestamp": "2025-12-17T04:57:44.646740+00:00", "meta": {"OBJECT_NAME": "FENGYUN 1C DEB", "OBJECT_ID": "1999-025BKF", "EPOCH": "2025-12-16T13:45:43.806816", "MEAN_MOTION": 14.35186802, "ECCENTRICITY": 0.01424935, "INCLINATION": 99.0022, "RA_OF_ASC_NODE": 211.6155, "ARG_OF_PERICENTER": 340.103, "MEAN_ANOMALY": 82.1343, "EPHEMERIS_TYPE": 0, "CLASSIFICATION_TYPE": "U", "NORAD_CAT_ID": 31201, "ELEMENT_SET_NO": 999, "REV_AT_EPOCH": 97306, "BSTAR": 0.00067876539, "MEAN_MOTION_DOT": 2.125e-05, "MEAN_MOTION_DDOT": 0}, "tle": {"line1": "1 31201U 99025BKF 25350.57342369  .00002125  00000+0  67877-3 0  9993", "line2": "2 31201  99.0022 211.6155 0142493 340.1030  82.1343 14.35186802973060"}}, "geometry": {"type": "Point", "coordinates": [97.4367194231154, 80.09118824693562]}}, {"type": "Feature", "properties": {"norad_id": 31202, "name": "FENGYUN 1C DEB", "group": "fengyun-1c-debris", "lat": -50.941023020801374, "lon": 43.84114772377917, "alt_km": 663.0797094270329, "timestamp": "2025-12-17T04:57:44.646749+00:00", "meta": {"OBJECT_NAME": "FENGYUN 1C DEB", "OBJECT_ID": "1999-025BKG", "EPOCH": "2025-12-16T09:50:29.632416", "MEAN_MOTION": 14.84147368, "ECCENTRICITY": 0.00685834, "INCLINATION": 96.573, "RA_OF_ASC_NODE": 35.0154, "ARG_OF_PERICENTER": 164.9342, "MEAN_ANOMALY": 209.2499, "EPHEMERIS_TYPE": 0, "CLASSIFICATION_TYPE": "U", "NORAD_CAT_ID": 31202, "ELEMENT_SET_NO": 999, "REV_AT_EPOCH": 99209, "BSTAR": 0.00070827662, "MEAN_MOTION_DOT": 6.131e-05, "MEAN_MOTION_DDOT": 0}, "tle": {"line1": "1 31202U 99025BKG 25350.41006519  .00006131  00000+0  70828-3 0  9992", "line2": "2 31202  96.5730  35.0154 0068583 164.9342 209.2499 14.84147368992097"}}, "geometry": {"type": "Point", "coordinates": [43.84114772377917, -50.941023020801374]}}, {"type": "Feature", "properties": {"norad_id": 31205, "name": "FENGYUN 1C DEB", "group": "fengyun-1c-debris", "lat": 0.5509587476407473, "lon": 84.4987952658599, "alt_km": 931.030272312536, "timestamp": "2025-12-17T04:57:44.646759+00:00", "meta": {"OBJECT_NAME": "FENGYUN 1C DEB", "OBJECT_ID": "1999-025BKK", "EPOCH": "2025-12-16T00:17:26.685888", "MEAN_MOTION": 14.23960616, "ECCENTRICITY": 0.01620156, "INCLINATION": 99.2291, "RA_OF_ASC_NODE": 83.3345, "ARG_OF_PERICENTER": 188.1312, "MEAN_ANOMALY": 171.7234, "EPHEMERIS_TYPE": 0, "CLASSIFICATION_TYPE": "U", "NORAD_CAT_ID": 31205, "ELEMENT_SET_NO": 999, "REV_AT_EPOCH": 97257, "BSTAR": 0.00015013009, "MEAN_MOTION_DOT": 3.44e-06, "MEAN_MOTION_DDOT": 0}, "tle": {"line1": "1 31205U 99025BKK 25350.01211442  .00000344  00000+0  15013-3 0  9999", "line2": "2 31205  99.2291  83.3345 0162015 188.1312 171.7234 14.23960616972573"}}, "geometry": {"type": "Point", "coordinates": [84.4987952658599, 0.5509587476407473]}}, {"type": "Feature", "properties": {"norad_id": 31206, "name": "FENGYUN 1C DEB", "group": "fengyun-1c-debris", "lat": -71.00197784905505, "lon": -73.83464701452422, "alt_km": 737.4613873477692, "timestamp": "2025-12-17T04:57:44.646768+00:00", "meta": {"OBJECT_NAME": "FENGYUN 1C DEB", "OBJECT_ID": "1999-025BKL", "EPOCH": "2025-12-15T16:37:21.980928", "MEAN_MOTION": 14.40514599, "ECCENTRICITY": 0.00777054, "INCLINATION": 98.8436, "RA_OF_ASC_NODE": 257.7159, "ARG_OF_PERICENTER": 353.1561, "MEAN_ANOMALY": 6.8558, "EPHEMERIS_TYPE": 0, "CLASSIFICATION_TYPE": "U", "NORAD_CAT_ID": 31206, "ELEMENT_SET_NO": 999, "REV_AT_EPOCH": 97888, "BSTAR": 0.00054010786, "MEAN_MOTION_DOT": 1.733e-05, "MEAN_MOTION_DDOT": 0}, "tle": {"line1": "1 31206U 99025BKL 25349.69261552  .00001733  00000+0  54011-3 0  9993", "line2": "2 31206  98.8436 257.7159 0077705 353.1561   6.8558 14.40514599978882"}}, "geometry": {"type": "Point", "coordinates": [-73.83464701452422, -71.00197784905505]}}, {"type": "Feature", "properties": {"norad_id": 31208, "name": "FENGYUN 1C DEB", "group": "fengyun-1c-debris", "lat": 27.87881643490941, "lon": -39.629718851469924, "alt_km": 687.736388285015, "timestamp": "2025-12-17T04:57:44.646777+00:00", "meta": {"OBJECT_NAME": "FENGYUN 1C DEB", "OBJECT_ID": "1999-025BKN", "EPOCH": "2025-12-13T08:25:55.088256", "MEAN_MOTION": 14.61862471, "ECCENTRICITY": 0.00160842, "INCLINATION": 99.2396, "RA_OF_ASC_NODE": 131.1249, "ARG_OF_PERICENTER": 265.8015, "MEAN_ANOMALY": 126.2818, "EPHEMERIS_TYPE": 0, "CLASSIFICATION_TYPE": "U", "NORAD_CAT_ID": 31208, "ELEMENT_SET_NO": 999, "REV_AT_EPOCH": 70488, "BSTAR": 0.0052061327, "MEAN_MOTION_DOT": 0.00026113, "MEAN_MOTION_DDOT": 0}, "tle": {"line1": "1 31208U 99025BKN 25347.35133204  .00026113  00000+0  52061-2 0  9999", "line2": "2 31208  99.2396 131.1249 0016084 265.8015 126.2818 14.61862471704886"}}, "geometry": {"type": "Point", "coordinates": [-39.629718851469924, 27.87881643490941]}}, {"type": "Feature", "properties": {"norad_id": 31209, "name": "FENGYUN 1C DEB", "group": "fengyun-1c-debris", "lat": 56.45128437794234, "lon": 72.83600973824319, "alt_km": 740.5243942481047, "timestamp": "2025-12-17T04:57:44.646786+00:00", "meta": {"OBJECT_NAME": "FENGYUN 1C DEB", "OBJECT_ID": "1999-025BKP", "EPOCH": "2025-12-16T12:03:44.309952", "MEAN_MOTION": 14.43545608, "ECCENTRICITY": 0.00216507, "INCLINATION": 98.8831, "RA_OF_ASC_NODE": 85.7436, "ARG_OF_PERICENTER": 332.5862, "MEAN_ANOMALY": 27.4183, "EPHEMERIS_TYPE": 0, "CLASSIFICATION_TYPE": "U", "NORAD_CAT_ID": 31209, "ELEMENT_SET_NO": 999, "REV_AT_EPOCH": 64862, "BSTAR": 0.0018420698, "MEAN_MOTION_DOT": 6.212e-05, "MEAN_MOTION_DDOT": 0}, "tle": {"line1": "1 31209U 99025BKP 25350.50259618  .00006212  00000+0  18421-2 0  9999", "line2": "2 31209  98.8831  85.7436 0021650 332.5862  27.4183 14.43545608648621"}}, "geometry": {"type": "Point", "coordinates": [72.83600973824319, 56.45128437794234]}}, {"type": "Feature", "properties": {"norad_id": 31210, "name": "FENGYUN 1C DEB", "group": "fengyun-1c-debris", "lat": 44.92571610585806, "lon": -179.08371090132027, "alt_km": 836.2449307138431, "timestamp": "2025-12-17T04:57:44.646795+00:00", "meta": {"OBJECT_NAME": "FENGYUN 1C DEB", "OBJECT_ID": "1999-025BKQ", "EPOCH": "2025-12-16T12:02:49.458912", "MEAN_MOTION": 14.12001246, "ECCENTRICITY": 0.00173175, "INCLINATION": 98.7186, "RA_OF_ASC_NODE": 351.4272, "ARG_OF_PERICENTER": 144.7926, "MEAN_ANOMALY": 8.8938, "EPHEMERIS_TYPE": 0, "CLASSIFICATION_TYPE": "U", "NORAD_CAT_ID": 31210, "ELEMENT_SET_NO": 999, "REV_AT_EPOCH": 96020, "BSTAR": 0.00032056612, "MEAN_MOTION_DOT": 5.45e-06, "MEAN_MOTION_DDOT": 0}, "tle": {"line1": "1 31210U 99025BKQ 25350.50196133  .00000545  00000+0  32057-3 0  9998", "line2": "2 31210  98.7186 351.4272 0017317 144.7926   8.8938 14.12001246960208"}}, "geometry": {"type": "Point", "coordinates": [-179.08371090132027, 44.92571610585806]}}]}